[{"OBJECT_NAME":"STARLINK-5989","OBJECT_ID":"2023-078Q","EPOCH":"2026-03-09T22:12:22.338720","MEAN_MOTION":14.98329872,"ECCENTRICITY":0.00025713,"INCLINATION":70.0007,"RA_OF_ASC_NODE":343.94,"ARG_OF_PERICENTER":272.6629,"MEAN_ANOMALY":87.4236,"EPHEMERIS_TYPE":0,"CLASSIFICATION_TYPE":"U","NORAD_CAT_ID":56781,"ELEMENT_SET_NO":999,"REV_AT_EPOCH":15271,"BSTAR":-2.2868689e-5,"MEAN_MOTION_DOT":-3.66e-6,"MEAN_MOTION_DDOT":0},{"OBJECT_NAME":"CZ-4B DEB","OBJECT_ID":"1999-057BZ","EPOCH":"2026-03-09T10:47:31.286688","MEAN_MOTION":14.9004764,"ECCENTRICITY":0.00449145,"INCLINATION":98.5631,"RA_OF_ASC_NODE":129.7133,"ARG_OF_PERICENTER":286.2462,"MEAN_ANOMALY":73.3815,"EPHEMERIS_TYPE":0,"CLASSIFICATION_TYPE":"U","NORAD_CAT_ID":26187,"ELEMENT_SET_NO":999,"REV_AT_EPOCH":39955,"BSTAR":0.00034061798,"MEAN_MOTION_DOT":3.283e-5,"MEAN_MOTION_DDOT":0}]
